ONEWEB-0118             
1 47264U 20100G   24008.88099339  .00000415  00000+0  11182-2 0  9993
2 47264  87.9012 167.7572 0001395  75.9906 284.1378 13.12443212147942
ONEWEB-0119             
1 47265U 20100H   24008.98580957 -.00000095  00000+0 -30003-3 0  9996
2 47265  87.9014 167.7749 0001643 102.3035 257.8278 13.12442090147933
ONEWEB-0120             
1 47266U 20100J   24008.93896935 -.00000182  00000+0 -54212-3 0  9993
2 47266  87.9015 167.7741 0001536  90.8692 269.2613 13.12443386147959
ONEWEB-0121             
1 47267U 20100K   24009.45435462 -.00000204  00000+0 -60132-3 0  9999
2 47267  87.9010 167.6682 0001619 105.2103 254.9205 13.12444995147931
ONEWEB-0122             
1 47268U 20100L   24008.91578652 -.00000332  00000+0 -95723-3 0  9995
2 47268  87.9012 167.7793 0001624  96.7907 263.3406 13.12443188147772
ONEWEB-0123             
1 47269U 20100M   24008.91116129 -.00000277  00000+0 -80640-3 0  9993
2 47269  87.9016 167.7882 0001646 108.9047 251.2260 13.12442762147918
ONEWEB-0124             
1 47270U 20100N   24008.90004191  .00000165  00000+0  42303-3 0  9997
2 47270  87.9015 167.7859 0001713 108.2336 251.8979 13.12444951147793
ONEWEB-0125             
1 47271U 20100P   24008.87463320  .00000269  00000+0  71249-3 0  9993
2 47271  87.9014 167.7486 0001107 103.3400 256.7852 13.12445542147852
